{"type": "FeatureCollection", "features": [ {"type": "Feature", "properties": {"norad_id": 32289, "name": "YAOGAN-3", "group": "resource", "lat": -63.676502211863486, "lon": -169.49903289094763, "alt_km": 606.2369846843403, "timestamp": "2025-12-26T03:50:11.744303+00:00", "meta": {"OBJECT_NAME": "YAOGAN-3", "OBJECT_ID": "2007-055A", "EPOCH": "2025-12-25T20:17:39.192864", "MEAN_MOTION": 14.89920086, "ECCENTRICITY": 0.0001274, "INCLINATION": 97.8357, "RA_OF_ASC_NODE": 26.3513, "ARG_OF_PERICENTER": 84.4904, "MEAN_ANOMALY": 275.6458, "EPHEMERIS_TYPE": 0, "CLASSIFICATION_TYPE": "U", "NORAD_CAT_ID": 32289, "ELEMENT_SET_NO": 999, "REV_AT_EPOCH": 98004, "BSTAR": 0.00020499, "MEAN_MOTION_DOT": 1.917e-05, "MEAN_MOTION_DDOT": 0}, "tle": {"line1": "1 32289U 07055A   25359.84559251  .00001917  00000+0  20499-3 0  9998", "line2": "2 32289  97.8357  26.3513 0001274  84.4904 275.6458 14.89920086980043"}}, "geometry": {"type": "Point", "coordinates": [-169.49903289094763, -63.676502211863486]}}, {"type": "Feature", "properties": {"norad_id": 32376, "name": "COSMO-SKYMED 2", "group": "resource", "lat": 28.946040951809312, "lon": 5.675003539474458, "alt_km": 620.8549922298607, "timestamp": "2025-12-26T03:50:11.744314+00:00", "meta": {"OBJECT_NAME": "COSMO-SKYMED 2", "OBJECT_ID": "2007-059A", "EPOCH": "2025-12-25T20:40:41.680128", "MEAN_MOTION": 14.82158571, "ECCENTRICITY": 0.0001307, "INCLINATION": 97.8806, "RA_OF_ASC_NODE": 180.9878, "ARG_OF_PERICENTER": 82.8452, "MEAN_ANOMALY": 277.291, "EPHEMERIS_TYPE": 0, "CLASSIFICATION_TYPE": "U", "NORAD_CAT_ID": 32376, "ELEMENT_SET_NO": 999, "REV_AT_EPOCH": 97632, "BSTAR": 7.8252e-05, "MEAN_MOTION_DOT": 5.71e-06, "MEAN_MOTION_DDOT": 0}, "tle": {"line1": "1 32376U 07059A   25359.86159352  .00000571  00000+0  78252-4 0  9995", "line2": "2 32376  97.8806 180.9878 0001307  82.8452 277.2910 14.82158571976329"}}, "geometry": {"type": "Point", "coordinates": [5.675003539474458, 28.946040951809312]}}, {"type": "Feature", "properties": {"norad_id": 32382, "name": "RADARSAT-2", "group": "resource", "lat": 74.14273506633364, "lon": -143.33944404815838, "alt_km": 783.9103885854956, "timestamp": "2025-12-26T03:50:11.744346+00:00", "meta": {"OBJECT_NAME": "RADARSAT-2", "OBJECT_ID": "2007-061A", "EPOCH": "2025-12-25T20:38:16.427904", "MEAN_MOTION": 14.29984539, "ECCENTRICITY": 0.0001133, "INCLINATION": 98.5797, "RA_OF_ASC_NODE": 4.2588, "ARG_OF_PERICENTER": 85.6737, "MEAN_ANOMALY": 274.4575, "EPHEMERIS_TYPE": 0, "CLASSIFICATION_TYPE": "U", "NORAD_CAT_ID": 32382, "ELEMENT_SET_NO": 999, "REV_AT_EPOCH": 94118, "BSTAR": -1.8021e-05, "MEAN_MOTION_DOT": -9e-07, "MEAN_MOTION_DDOT": 0}, "tle": {"line1": "1 32382U 07061A   25359.85991236 -.00000090  00000+0 -18021-4 0  9995", "line2": "2 32382  98.5797   4.2588 0001133  85.6737 274.4575 14.29984539941187"}}, "geometry": {"type": "Point", "coordinates": [-143.33944404815838, 74.14273506633364]}}, {"type": "Feature", "properties": {"norad_id": 32783, "name": "CARTOSAT-2A", "group": "resource", "lat": 43.86037390847122, "lon": -122.87708116836689, "alt_km": 636.6027529356907, "timestamp": "2025-12-26T03:50:11.744361+00:00", "meta": {"OBJECT_NAME": "CARTOSAT-2A", "OBJECT_ID": "2008-021A", "EPOCH": "2025-12-25T20:43:49.568160", "MEAN_MOTION": 14.78954355, "ECCENTRICITY": 0.0010934, "INCLINATION": 97.7908, "RA_OF_ASC_NODE": 49.2758, "ARG_OF_PERICENTER": 321.0266, "MEAN_ANOMALY": 39.0157, "EPHEMERIS_TYPE": 0, "CLASSIFICATION_TYPE": "U", "NORAD_CAT_ID": 32783, "ELEMENT_SET_NO": 999, "REV_AT_EPOCH": 95318, "BSTAR": 9.2912e-05, "MEAN_MOTION_DOT": 6.36e-06, "MEAN_MOTION_DDOT": 0}, "tle": {"line1": "1 32783U 08021A   25359.86376815  .00000636  00000+0  92912-4 0  9993", "line2": "2 32783  97.7908  49.2758 0010934 321.0266  39.0157 14.78954355953189"}}, "geometry": {"type": "Point", "coordinates": [-122.87708116836689, 43.86037390847122]}}, {"type": "Feature", "properties": {"norad_id": 33320, "name": "HUANJING 1A (HJ-1A)", "group": "resource", "lat": -35.87915665411496, "lon": 162.315181183926, "alt_km": 634.3398255558805, "timestamp": "2025-12-26T03:50:11.744373+00:00", "meta": {"OBJECT_NAME": "HUANJING 1A (HJ-1A)", "OBJECT_ID": "2008-041A", "EPOCH": "2025-12-25T22:00:27.835776", "MEAN_MOTION": 14.83433246, "ECCENTRICITY": 0.0019133, "INCLINATION": 97.6551, "RA_OF_ASC_NODE": 347.6653, "ARG_OF_PERICENTER": 352.1825, "MEAN_ANOMALY": 7.9088, "EPHEMERIS_TYPE": 0, "CLASSIFICATION_TYPE": "U", "NORAD_CAT_ID": 33320, "ELEMENT_SET_NO": 999, "REV_AT_EPOCH": 93271, "BSTAR": 0.00018043, "MEAN_MOTION_DOT": 1.435e-05, "MEAN_MOTION_DDOT": 0}, "tle": {"line1": "1 33320U 08041A   25359.91698884  .00001435  00000+0  18043-3 0  9992", "line2": "2 33320  97.6551 347.6653 0019133 352.1825   7.9088 14.83433246932715"}}, "geometry": {"type": "Point", "coordinates": [162.315181183926, -35.87915665411496]}}, {"type": "Feature", "properties": {"norad_id": 33321, "name": "HUANJING 1B (HJ-1B)", "group": "resource", "lat": 49.04141647515943, "lon": -17.33711986397238, "alt_km": 590.6238027648515, "timestamp": "2025-12-26T03:50:11.744385+00:00", "meta": {"OBJECT_NAME": "HUANJING 1B (HJ-1B)", "OBJECT_ID": "2008-041B", "EPOCH": "2025-12-25T21:08:13.858080", "MEAN_MOTION": 14.82856603, "ECCENTRICITY": 0.0037663, "INCLINATION": 97.6409, "RA_OF_ASC_NODE": 351.293, "ARG_OF_PERICENTER": 34.1292, "MEAN_ANOMALY": 326.2333, "EPHEMERIS_TYPE": 0, "CLASSIFICATION_TYPE": "U", "NORAD_CAT_ID": 33321, "ELEMENT_SET_NO": 999, "REV_AT_EPOCH": 93272, "BSTAR": 0.0002244, "MEAN_MOTION_DOT": 1.788e-05, "MEAN_MOTION_DDOT": 0}, "tle": {"line1": "1 33321U 08041B   25359.88071595  .00001788  00000+0  22440-3 0  9990", "line2": "2 33321  97.6409 351.2930 0037663  34.1292 326.2333 14.82856603932726"}}, "geometry": {"type": "Point", "coordinates": [-17.33711986397238, 49.04141647515943]}}, {"type": "Feature", "properties": {"norad_id": 33331, "name": "GEOEYE 1", "group": "resource", "lat": -61.57639661776128, "lon": -124.03190044935447, "alt_km": 683.084987808742, "timestamp": "2025-12-26T03:50:11.744396+00:00", "meta": {"OBJECT_NAME": "GEOEYE 1", "OBJECT_ID": "2008-042A", "EPOCH": "2025-12-25T18:32:04.445088", "MEAN_MOTION": 14.64717474, "ECCENTRICITY": 0.0003029, "INCLINATION": 98.1237, "RA_OF_ASC_NODE": 70.8879, "ARG_OF_PERICENTER": 228.5495, "MEAN_ANOMALY": 131.5447, "EPHEMERIS_TYPE": 0, "CLASSIFICATION_TYPE": "U", "NORAD_CAT_ID": 33331, "ELEMENT_SET_NO": 999, "REV_AT_EPOCH": 92476, "BSTAR": 0.000127, "MEAN_MOTION_DOT": 6.29e-06, "MEAN_MOTION_DDOT": 0}, "tle": {"line1": "1 33331U 08042A   25359.77227367  .00000629  00000+0  12700-3 0  9991", "line2": "2 33331  98.1237  70.8879 0003029 228.5495 131.5447 14.64717474924761"}}, "geometry": {"type": "Point", "coordinates": [-124.03190044935447, -61.57639661776128]}}, {"type": "Feature", "properties": {"norad_id": 33396, "name": "THEOS", "group": "resource", "lat": 71.30284839256285, "lon": -95.63867590844795, "alt_km": 817.2722028325297, "timestamp": "2025-12-26T03:50:11.744408+00:00", "meta": {"OBJECT_NAME": "THEOS", "OBJECT_ID": "2008-049A", "EPOCH": "2025-12-25T20:34:20.675136", "MEAN_MOTION": 14.20099581, "ECCENTRICITY": 0.0001197, "INCLINATION": 98.5844, "RA_OF_ASC_NODE": 57.5585, "ARG_OF_PERICENTER": 93.5052, "MEAN_ANOMALY": 266.6262, "EPHEMERIS_TYPE": 0, "CLASSIFICATION_TYPE": "U", "NORAD_CAT_ID": 33396, "ELEMENT_SET_NO": 999, "REV_AT_EPOCH": 89336, "BSTAR": 0.00012025, "MEAN_MOTION_DOT": 2.14e-06, "MEAN_MOTION_DDOT": 0}, "tle": {"line1": "1 33396U 08049A   25359.85718374  .00000214  00000+0  12025-3 0  9991", "line2": "2 33396  98.5844  57.5585 0001197  93.5052 266.6262 14.20099581893369"}}, "geometry": {"type": "Point", "coordinates": [-95.63867590844795, 71.30284839256285]}}, {"type": "Feature", "properties": {"norad_id": 33412, "name": "COSMO-SKYMED 3", "group": "resource", "lat": -10.833583667399866, "lon": -147.7092902727793, "alt_km": 563.3978491112621, "timestamp": "2025-12-26T03:50:11.744418+00:00", "meta": {"OBJECT_NAME": "COSMO-SKYMED 3", "OBJECT_ID": "2008-054A", "EPOCH": "2025-12-25T19:54:33.333408", "MEAN_MOTION": 15.05468881, "ECCENTRICITY": 0.0017147, "INCLINATION": 97.8451, "RA_OF_ASC_NODE": 210.443, "ARG_OF_PERICENTER": 129.5422, "MEAN_ANOMALY": 230.7322, "EPHEMERIS_TYPE": 0, "CLASSIFICATION_TYPE": "U", "NORAD_CAT_ID": 33412, "ELEMENT_SET_NO": 999, "REV_AT_EPOCH": 93084, "BSTAR": 0.00043418, "MEAN_MOTION_DOT": 6.195e-05, "MEAN_MOTION_DDOT": 0}, "tle": {"line1": "1 33412U 08054A   25359.82955247  .00006195  00000+0  43418-3 0  9999", "line2": "2 33412  97.8451 210.4430 0017147 129.5422 230.7322 15.05468881930847"}}, "geometry": {"type": "Point", "coordinates": [-147.7092902727793, -10.833583667399866]}}, {"type": "Feature", "properties": {"norad_id": 33446, "name": "YAOGAN-4", "group": "resource", "lat": -44.52168253673126, "lon": -62.00283744345242, "alt_km": 620.4424655873772, "timestamp": "2025-12-26T03:50:11.744429+00:00", "meta": {"OBJECT_NAME": "YAOGAN-4", "OBJECT_ID": "2008-061A", "EPOCH": "2025-12-25T18:19:17.173344", "MEAN_MOTION": 14.8271976, "ECCENTRICITY": 0.0012966, "INCLINATION": 97.9198, "RA_OF_ASC_NODE": 289.7359, "ARG_OF_PERICENTER": 277.0684, "MEAN_ANOMALY": 82.9055, "EPHEMERIS_TYPE": 0, "CLASSIFICATION_TYPE": "U", "NORAD_CAT_ID": 33446, "ELEMENT_SET_NO": 999, "REV_AT_EPOCH": 91996, "BSTAR": 0.00018511, "MEAN_MOTION_DOT": 1.442e-05, "MEAN_MOTION_DDOT": 0}, "tle": {"line1": "1 33446U 08061A   25359.76339321  .00001442  00000+0  18511-3 0  9992", "line2": "2 33446  97.9198 289.7359 0012966 277.0684  82.9055 14.82719760919964"}}, "geometry": {"type": "Point", "coordinates": [-62.00283744345242, -44.52168253673126]}}]}